[{"OBJECT_NAME":"STARLINK-5128","OBJECT_ID":"2022-125AL","EPOCH":"2026-03-09T16:11:28.508064","MEAN_MOTION":15.08843167,"ECCENTRICITY":0.00012783,"INCLINATION":53.217,"RA_OF_ASC_NODE":213.9495,"ARG_OF_PERICENTER":93.0826,"MEAN_ANOMALY":267.0312,"EPHEMERIS_TYPE":0,"CLASSIFICATION_TYPE":"U","NORAD_CAT_ID":53998,"ELEMENT_SET_NO":999,"REV_AT_EPOCH":18946,"BSTAR":-3.5009277e-5,"MEAN_MOTION_DOT":-8.45e-6,"MEAN_MOTION_DDOT":0},{"OBJECT_NAME":"CZ-6A DEB","OBJECT_ID":"2024-140AAN","EPOCH":"2026-03-09T15:08:07.195776","MEAN_MOTION":15.20547394,"ECCENTRICITY":0.0064261,"INCLINATION":89.3669,"RA_OF_ASC_NODE":306.3092,"ARG_OF_PERICENTER":93.6352,"MEAN_ANOMALY":267.2246,"EPHEMERIS_TYPE":0,"CLASSIFICATION_TYPE":"U","NORAD_CAT_ID":61480,"ELEMENT_SET_NO":999,"REV_AT_EPOCH":8198,"BSTAR":0.0033609,"MEAN_MOTION_DOT":0.00078405,"MEAN_MOTION_DDOT":0}]
